IRIDIUM 144             
1 43249U 18030A   25332.57633399  .00000286  00000+0  95204-4 0  9993
2 43249  86.3983  14.2674 0002206  98.6250 261.5195 14.34219651401386
IRIDIUM 149             
1 43250U 18030B   25332.58267380  .00000166  00000+0  52254-4 0  9994
2 43250  86.3983  14.2338 0002173  96.4854 263.6589 14.34216584401409
IRIDIUM 157             
1 43251U 18030C   25332.60170692 -.00000057  00000+0 -27552-4 0  9991
2 43251  86.3980  14.2744 0002222  91.4330 268.7120 14.34217271401385
IRIDIUM 140             
1 43252U 18030D   25332.55096875  .00000262  00000+0  86358-4 0  9991
2 43252  86.3984  14.3090 0002121  97.7493 262.3944 14.34220747401434
IRIDIUM 145             
1 43253U 18030E   25332.81735347  .00000215  00000+0  69670-4 0  9991
2 43253  86.3976  14.1699 0002135 103.0774 257.0660 14.34218673401405
IRIDIUM 146             
1 43254U 18030F   25332.51925255  .00000077  00000+0  20361-4 0  9998
2 43254  86.3983  14.3078 0002256  99.4633 260.6817 14.34217632401377
IRIDIUM 148             
1 43255U 18030G   25332.62707762  .00000236  00000+0  77378-4 0  9999
2 43255  86.3984  14.3023 0002284  92.8623 267.2834 14.34218166401427
IRIDIUM 142             
1 43256U 18030H   25332.10698359  .00000193  00000+0  61753-4 0  9996
2 43256  86.3982  14.4166 0002311 104.5878 255.5575 14.34219608401311
